OSCAR 7 (AO-7)          
1 07530U 74089B   18003.47324591 -.00000047  00000-0 -14911-4 0  9993
2 07530 101.6628 333.4298 0011899 295.3255 176.7736 12.53630533973728
UOSAT 2 (UO-11)         
1 14781U 84021B   18003.56918787  .00000086  00000-0  16755-4 0  9991
2 14781  97.6717  46.6052 0007074 261.5177  98.5236 14.82970778799045
LUSAT (LO-19)           
1 20442U 90005G   18003.41618815 -.00000002  00000-0  15377-4 0  9992
2 20442  98.5954 303.0607 0010662 277.8686  82.1288 14.32883041460296
EYESAT-1 (AO-27)        
1 22825U 93061C   18003.51494615 -.00000015  00000-0  11998-4 0  9994
2 22825  98.8411 336.8445 0009426 104.9793 255.2432 14.30018256265768
ITAMSAT (IO-26)         
1 22826U 93061D   18003.49989021 -.00000004  00000-0  15995-4 0  9991
2 22826  98.8353 336.8874 0009989  96.0241 264.2079 14.30348898266219
RADIO ROSTO (RS-15)     
1 23439U 94085A   18003.61822848 -.00000046  00000-0 -86312-4 0  9994
2 23439  64.8154 254.9926 0162520 211.2239 163.2868 11.27566208948018
JAS-2 (FO-29)           
1 24278U 96046B   18003.55476179 -.00000043  00000-0 -87604-5 0  9993
2 24278  98.5321 224.8477 0350407 177.8394 182.4359 13.53080705 55728
TECHSAT 1B (GO-32)      
1 25397U 98043D   18003.43065863 -.00000019  00000-0  10482-4 0  9997
2 25397  98.6333 306.7483 0002159 114.7197 245.4206 14.23637173 12281
ISS (ZARYA)             
1 25544U 98067A   18004.10386574  .00001914  00000-0  35985-4 0  9996
2 25544  51.6418 116.7135 0002926 334.5981  21.5290 15.54254416 92998
PCSAT (NO-44)           
1 26931U 01043C   18003.77136968 -.00000025  00000-0  22037-4 0  9994
2 26931  67.0519 293.6491 0005192 274.8723  85.1785 14.30489475849038
SAUDISAT 1C (SO-50)     
1 27607U 02058C   18003.64161915 -.00000003  00000-0  20256-4 0  9995
2 27607  64.5544 232.9682 0045128  10.2010 349.9997 14.75408990808685
CUTE-1 (CO-55)          
1 27844U 03031E   18003.81267233  .00000051  00000-0  42944-4 0  9999
2 27844  98.6884  14.8853 0010654 124.1217 236.0973 14.22086555752836
CUBESAT XI-IV (CO-57)   
1 27848U 03031J   18003.86720663  .00000037  00000-0  36644-4 0  9993
2 27848  98.6973  15.2789 0010452 133.0670 227.1384 14.21694470752714
MOZHAYETS 4 (RS-22)     
1 27939U 03042A   18003.84542255  .00000111  00000-0  28504-4 0  9992
2 27939  97.9652 147.4826 0011926 313.6185 202.2775 14.66645799762724
CUBESAT XI-V (CO-58)    
1 28895U 05043F   18003.43796584  .00000138  00000-0  35281-4 0  9997
2 28895  97.8851 161.8002 0015912 227.1676 132.8190 14.63493893649541
CUTE-1.7+APD II (CO-65) 
1 32785U 08021C   18003.84251317  .00000217  00000-0  29211-4 0  9998
2 32785  97.5542  23.8158 0012146 218.2917 141.7439 14.88040043524732
DELFI-C3 (DO-64)        
1 32789U 08021G   18003.58408381  .00001344  00000-0  97120-4 0  9994
2 32789  97.5348  62.4077 0013629 135.8544 224.3773 15.05643848526919
SEEDS II (CO-66)        
1 32791U 08021J   18003.86158415  .00000348  00000-0  41101-4 0  9999
2 32791  97.5475  28.7880 0012902 199.6498 160.4225 14.90436601525033
YUBILEINY (RS-30)       
1 32953U 08025A   18003.77053652  .00000020  00000-0  76036-4 0  9992
2 32953  82.5039 114.9375 0019228 205.5503 154.4628 12.43080720436340
PRISM (HITOMI)          
1 33493U 09002B   18003.64257471  .00000426  00000-0  43528-4 0  9999
2 33493  98.1456 259.2770 0016071 136.6478 223.6018 14.96021153485741
KKS-1 (KISEKI)          
1 33499U 09002H   18003.84360710  .00000091  00000-0  21565-4 0  9993
2 33499  98.3454 180.3456 0010447  95.5325 264.7075 14.75280758480948
SWISSCUBE               
1 35932U 09051B   18003.38269850  .00000129  00000-0  40085-4 0  9993
2 35932  98.5210 150.8213 0007534   4.7336 355.3931 14.56106892439457
BEESAT                  
1 35933U 09051C   18003.83425864  .00000105  00000-0  34625-4 0  9990
2 35933  98.5249 152.7233 0006015  19.3387 340.8037 14.56216298439621
ITUPSAT 1               
1 35935U 09051E   18003.45277081  .00000073  00000-0  27831-4 0  9991
2 35935  98.5360 152.5880 0008197  11.7705 348.3682 14.55399731439369
XIWANG-1 (HOPE-1)       
1 36122U 09072B   18003.53765207 -.00000022  00000-0  53439-4 0  9992
2 36122 100.0858  25.8138 0008012 129.9365 230.2454 13.16342949386886
TISAT 1                 
1 36799U 10035E   18003.33127020  .00000311  00000-0  37728-4 0  9999
2 36799  98.0839 135.4465 0012975  35.3353 324.8722 14.90657985405390
JUGNU                   
1 37839U 11058B   18003.20442693  .00000315  00000-0  25718-4 0  9993
2 37839  19.9623 317.6667 0018868 227.6116 255.3346 14.12605714322011
SRMSAT                  
1 37841U 11058D   18003.34288359  .00000296  00000-0  17356-4 0  9995
2 37841  19.9734   2.6292 0012046 119.4290  13.7028 14.10595431321480
M-CUBED & EXP-1 PRIME   
1 37855U 11061F   18003.57709932  .00000369  00000-0  27482-4 0  9996
2 37855 101.7205 341.8989 0177880 209.1606 149.9582 15.03958672336436
HORYU 2                 
1 38340U 12025D   18003.49130861  .00000206  00000-0  38365-4 0  9999
2 38340  98.3749  19.4810 0011963  20.9627 339.2070 14.75477899292412
STRAND-1                
1 39090U 13009E   18003.48764698  .00000049  00000-0  32702-4 0  9999
2 39090  98.5342 211.8595 0010249  68.6574 291.5705 14.35005082254184
SOMP                    
1 39134U 13015E   18003.20425036  .00001330  00000-0  72922-4 0  9997
2 39134  64.8643 300.4035 0029556 231.9435 127.9025 15.18687640259842
BEESAT-3                
1 39135U 13015F   18003.29024334  .00001209  00000-0  71650-4 0  9995
2 39135  64.8699 311.3792 0030466 256.1855 103.5880 15.16292704259257
BEESAT-2                
1 39136U 13015G   18003.46686480  .00001016  00000-0  62676-4 0  9995
2 39136  64.8705 313.1611 0031947 254.2879 105.4722 15.15779908259235
CUBEBUG-1 (CAPITAN BETO)
1 39153U 13018D   18003.72172170  .00000220  00000-0  35777-4 0  9990
2 39153  97.9827  99.9441 0018274 117.4970 242.8102 14.80318784253263
ZACUBE-1 (TSHEPISOSAT)  
1 39417U 13066B   18003.51592699  .00000230  00000-0  35576-4 0  9993
2 39417  97.6064  40.7841 0058494 335.7708  24.0756 14.80853615222422
TRITON-1                
1 39427U 13066M   18003.51352338  .00000222  00000-0  43099-4 0  9998
2 39427  97.6363  10.4239 0115502  67.2832 294.0534 14.67591549220420
GOMX 1                  
1 39430U 13066Q   18003.71365125  .00000191  00000-0  43170-4 0  9997
2 39430  97.6799 352.6199 0152731 129.4590 232.0239 14.58999234219177
HUMSAT-D                
1 39433U 13066T   18003.16887990  .00000594  00000-0  64115-4 0  9997
2 39433  97.6282  65.1281 0029572 271.8546  87.9286 14.91707686223825
EAGLE 2                 
1 39436U 13066W   18003.40243271  .00052832  00000-0  80459-3 0  9995
2 39436  97.7133 126.3272 0005576  73.9895 286.1971 15.54326890227541
CUBEBUG-2 (LO-74)       
1 39440U 13066AA  18003.50054718  .00000233  00000-0  39591-4 0  9997
2 39440  97.6118  28.4394 0080824  11.3629 348.9382 14.75591177220433
FUNCUBE-1 (AO-73)       
1 39444U 13066AE  18003.52976149  .00000278  00000-0  41007-4 0  9998
2 39444  97.6077  42.1110 0057545 331.6929  28.1160 14.81615084220684
UWE-3                   
1 39446U 13066AG  18003.53446960  .00000218  00000-0  35788-4 0  9997
2 39446  97.6078  34.2912 0070063 353.8804   6.1544 14.78124200220208
SPROUT                  
1 39770U 14029E   18003.76919360  .00000599  00000-0  73713-4 0  9993
2 39770  97.8760 106.2729 0009948  37.1421 323.0483 14.86613843195934
UNISAT-6                
1 40012U 14033C   18003.50402269  .00000203  00000-0  37938-4 0  9997
2 40012  97.8305 245.6367 0058880  10.9272 349.3200 14.73745826190440
DUCHIFAT-1              
1 40021U 14033M   18003.55402273  .00000386  00000-0  45730-4 0  9998
2 40021  97.9175 281.9774 0013297   7.4925 352.6489 14.90158665192435
FUNCUBE-3 (EO-79)       
1 40025U 14033R   18003.53651452  .00000269  00000-0  34905-4 0  9997
2 40025  97.9092 279.2407 0012868  13.0372 347.1175 14.88609205192295
CHUBUSAT-1              
1 40300U 14070C   18003.73561368  .00000850  00000-0  40825-4 0  9996
2 40300  97.3812  84.8449 0021888 116.3833 342.3098 15.21327255175272
NUDT-PHONESAT           
1 40900U 15049B   18003.83096619  .00002078  00000-0  97808-4 0  9999
2 40900  97.4420  14.0582 0012180 241.2688 118.7324 15.20618343126934
ZDPS 2A                 
1 40901U 15049C   18003.82632416  .00000826  00000-0  45425-4 0  9997
2 40901  97.4584  12.7841 0012300 246.6235 113.3704 15.16779608126749
ZDPS 2B                 
1 40902U 15049D   18003.84451204  .00000786  00000-0  43593-4 0  9993
2 40902  97.4469  11.1044 0012412 243.3267 116.6696 15.16591277126732
XW-2A                   
1 40903U 15049E   18003.86723994  .00001826  00000-0  48065-4 0  9999
2 40903  97.4029  36.9731 0012715 262.1675  97.8127 15.39851587128516
KAITUO 1A               
1 40904U 15049F   18003.81390223  .00000814  00000-0  47262-4 0  9994
2 40904  97.4561  10.5172 0013173 246.5940 237.5886 15.14837962126613
2015-049G               
1 40905U 15049G   18003.83324508  .00000387  00000-0  24977-4 0  9993
2 40905  97.4548   8.8925 0014492 236.2932 123.6919 15.13819926126551
XW-2C                   
1 40906U 15049H   18003.73359567  .00000627  00000-0  37111-4 0  9997
2 40906  97.4574  10.2955 0013734 236.7359 123.2558 15.14958523126594
XW-2D                   
1 40907U 15049J   18003.83357639  .00000664  00000-0  38936-4 0  9994
2 40907  97.4545  10.1136 0013130 233.9331 126.0685 15.15092570126619
LILACSAT 2              
1 40908U 15049K   18003.84586139  .00000325  00000-0  21811-4 0  9993
2 40908  97.4653   9.6889 0014750 234.3809 125.6049 15.13372791126514
XW-2F                   
1 40910U 15049M   18003.83920682  .00000999  00000-0  55101-4 0  9996
2 40910  97.4556  11.1396 0013948 230.4532 129.5469 15.16171841126546
XW-2B                   
1 40911U 15049N   18003.84535786  .00000656  00000-0  38567-4 0  9992
2 40911  97.4584  10.5967 0013042 234.3799 125.6219 15.15043067126512
